{
  "type": "FeatureCollection",
  "features": [
    {
      "type": "Feature",
      "properties": {
        "norad_id": 36533,
        "name": "COSMOS 2251 DEB",
        "group": "cosmos-2251-debris",
        "lat": -73.96679823717386,
        "lon": 29.17512458783621,
        "alt_km": 698.4877427876936,
        "timestamp": "2025-12-12T11:38:31.810003+00:00",
        "meta_object_name": "COSMOS 2251 DEB",
        "meta_object_id": "1993-036BCT",
        "meta_epoch": "2025-12-11T02:55:41.664000",
        "meta_mean_motion": 14.498054,
        "meta_eccentricity": 0.00492095,
        "meta_inclination": 74.0114,
        "meta_ra_of_asc_node": 117.868,
        "meta_arg_of_pericenter": 267.3068,
        "meta_mean_anomaly": 92.2459,
        "meta_ephemeris_type": 0,
        "meta_classification_type": "U",
        "meta_norad_cat_id": 36533,
        "meta_element_set_no": 999,
        "meta_rev_at_epoch": 84461,
        "meta_bstar": 0.00077586948,
        "meta_mean_motion_dot": 3.011e-05,
        "meta_mean_motion_ddot": 0,
        "tle_line1": "1 36533U 93036BCT 25345.12201000  .00003011  00000+0  77587-3 0  9997",
        "tle_line2": "2 36533  74.0114 117.8680 0049209 267.3068  92.2459 14.49805400844615"
      },
      "geometry": {
        "type": "Point",
        "coordinates": [
          29.17512458783621,
          -73.96679823717386
        ]
      }
    },
    {
      "type": "Feature",
      "properties": {
        "norad_id": 36539,
        "name": "COSMOS 2251 DEB",
        "group": "cosmos-2251-debris",
        "lat": 69.28367008214683,
        "lon": -173.57915362605385,
        "alt_km": 690.8063172074371,
        "timestamp": "2025-12-12T11:38:31.810013+00:00",
        "meta_object_name": "COSMOS 2251 DEB",
        "meta_object_id": "1993-036BCZ",
        "meta_epoch": "2025-12-11T15:25:29.467488",
        "meta_mean_motion": 14.59291195,
        "meta_eccentricity": 0.00272696,
        "meta_inclination": 74.0237,
        "meta_ra_of_asc_node": 57.2724,
        "meta_arg_of_pericenter": 202.5969,
        "meta_mean_anomaly": 157.3998,
        "meta_ephemeris_type": 0,
        "meta_classification_type": "U",
        "meta_norad_cat_id": 36539,
        "meta_element_set_no": 999,
        "meta_rev_at_epoch": 83931,
        "meta_bstar": 0.0011949516,
        "meta_mean_motion_dot": 5.65e-05,
        "meta_mean_motion_ddot": 0,
        "tle_line1": "1 36539U 93036BCZ 25345.64270217  .00005650  00000+0  11950-2 0  9998",
        "tle_line2": "2 36539  74.0237  57.2724 0027269 202.5969 157.3998 14.59291195839319"
      },
      "geometry": {
        "type": "Point",
        "coordinates": [
          -173.57915362605385,
          69.28367008214683
        ]
      }
    },
    {
      "type": "Feature",
      "properties": {
        "norad_id": 36540,
        "name": "COSMOS 2251 DEB",
        "group": "cosmos-2251-debris",
        "lat": 61.61881109608093,
        "lon": -146.9851534013411,
        "alt_km": 702.3800869529814,
        "timestamp": "2025-12-12T11:38:31.810023+00:00",
        "meta_object_name": "COSMOS 2251 DEB",
        "meta_object_id": "1993-036BDA",
        "meta_epoch": "2025-12-10T19:49:44.721120",
        "meta_mean_motion": 14.58450525,
        "meta_eccentricity": 0.00150636,
        "meta_inclination": 74.0281,
        "meta_ra_of_asc_node": 184.1599,
        "meta_arg_of_pericenter": 254.4622,
        "meta_mean_anomaly": 105.488,
        "meta_ephemeris_type": 0,
        "meta_classification_type": "U",
        "meta_norad_cat_id": 36540,
        "meta_element_set_no": 999,
        "meta_rev_at_epoch": 85982,
        "meta_bstar": 0.0015654677,
        "meta_mean_motion_dot": 7.253e-05,
        "meta_mean_motion_ddot": 0,
        "tle_line1": "1 36540U 93036BDA 25344.82621205  .00007253  00000+0  15655-2 0  9993",
        "tle_line2": "2 36540  74.0281 184.1599 0015063 254.4622 105.4880 14.58450525859826"
      },
      "geometry": {
        "type": "Point",
        "coordinates": [
          -146.9851534013411,
          61.61881109608093
        ]
      }
    },
    {
      "type": "Feature",
      "properties": {
        "norad_id": 36550,
        "name": "COSMOS 2251 DEB",
        "group": "cosmos-2251-debris",
        "lat": -60.13615697091035,
        "lon": 163.316563734494,
        "alt_km": 772.760295578727,
        "timestamp": "2025-12-12T11:38:31.810033+00:00",
        "meta_object_name": "COSMOS 2251 DEB",
        "meta_object_id": "1993-036BDL",
        "meta_epoch": "2025-12-11T22:29:04.773120",
        "meta_mean_motion": 14.2719583,
        "meta_eccentricity": 0.0078395,
        "meta_inclination": 74.044,
        "meta_ra_of_asc_node": 194.1933,
        "meta_arg_of_pericenter": 245.0302,
        "meta_mean_anomaly": 114.2688,
        "meta_ephemeris_type": 0,
        "meta_classification_type": "U",
        "meta_norad_cat_id": 36550,
        "meta_element_set_no": 999,
        "meta_rev_at_epoch": 84584,
        "meta_bstar": 0.00089503,
        "meta_mean_motion_dot": 2.233e-05,
        "meta_mean_motion_ddot": 0,
        "tle_line1": "1 36550U 93036BDL 25345.93686080  .00002233  00000+0  89503-3 0  9996",
        "tle_line2": "2 36550  74.0440 194.1933 0078395 245.0302 114.2688 14.27195830845847"
      },
      "geometry": {
        "type": "Point",
        "coordinates": [
          163.316563734494,
          -60.13615697091035
        ]
      }
    },
    {
      "type": "Feature",
      "properties": {
        "norad_id": 36551,
        "name": "COSMOS 2251 DEB",
        "group": "cosmos-2251-debris",
        "lat": -70.0261330464074,
        "lon": -37.463297093652855,
        "alt_km": 539.706923456285,
        "timestamp": "2025-12-12T11:38:31.810043+00:00",
        "meta_object_name": "COSMOS 2251 DEB",
        "meta_object_id": "1993-036BDM",
        "meta_epoch": "2025-12-11T08:49:13.161216",
        "meta_mean_motion": 15.02499936,
        "meta_eccentricity": 0.00508907,
        "meta_inclination": 73.8866,
        "meta_ra_of_asc_node": 17.5288,
        "meta_arg_of_pericenter": 326.8446,
        "meta_mean_anomaly": 32.9554,
        "meta_ephemeris_type": 0,
        "meta_classification_type": "U",
        "meta_norad_cat_id": 36551,
        "meta_element_set_no": 999,
        "meta_rev_at_epoch": 66911,
        "meta_bstar": 0.0023963096,
        "meta_mean_motion_dot": 0.00032841,
        "meta_mean_motion_ddot": 0,
        "tle_line1": "1 36551U 93036BDM 25345.36751344  .00032841  00000+0  23963-2 0  9995",
        "tle_line2": "2 36551  73.8866  17.5288 0050890 326.8446  32.9554 15.02499936669115"
      },
      "geometry": {
        "type": "Point",
        "coordinates": [
          -37.463297093652855,
          -70.0261330464074
        ]
      }
    },
    {
      "type": "Feature",
      "properties": {
        "norad_id": 36557,
        "name": "COSMOS 2251 DEB",
        "group": "cosmos-2251-debris",
        "lat": -66.68895228564672,
        "lon": 84.92746008716416,
        "alt_km": 627.2525892959366,
        "timestamp": "2025-12-12T11:38:31.810054+00:00",
        "meta_object_name": "COSMOS 2251 DEB",
        "meta_object_id": "1993-036BDT",
        "meta_epoch": "2025-12-11T16:28:44.136480",
        "meta_mean_motion": 14.78160391,
        "meta_eccentricity": 0.00210346,
        "meta_inclination": 73.9786,
        "meta_ra_of_asc_node": 128.3248,
        "meta_arg_of_pericenter": 280.1534,
        "meta_mean_anomaly": 79.7268,
        "meta_ephemeris_type": 0,
        "meta_classification_type": "U",
        "meta_norad_cat_id": 36557,
        "meta_element_set_no": 999,
        "meta_rev_at_epoch": 33881,
        "meta_bstar": 0.0052972788,
        "meta_mean_motion_dot": 0.00038702,
        "meta_mean_motion_ddot": 0,
        "tle_line1": "1 36557U 93036BDT 25345.68662195  .00038702  00000+0  52973-2 0  9996",
        "tle_line2": "2 36557  73.9786 128.3248 0021034 280.1534  79.7268 14.78160391338811"
      },
      "geometry": {
        "type": "Point",
        "coordinates": [
          84.92746008716416,
          -66.68895228564672
        ]
      }
    },
    {
      "type": "Feature",
      "properties": {
        "norad_id": 36558,
        "name": "COSMOS 2251 DEB",
        "group": "cosmos-2251-debris",
        "lat": -62.22792294163588,
        "lon": 7.9394798666350495,
        "alt_km": 705.8716626484929,
        "timestamp": "2025-12-12T11:38:31.810064+00:00",
        "meta_object_name": "COSMOS 2251 DEB",
        "meta_object_id": "1993-036BDU",
        "meta_epoch": "2025-12-09T18:10:09.606432",
        "meta_mean_motion": 14.55323693,
        "meta_eccentricity": 0.00129627,
        "meta_inclination": 74.0418,
        "meta_ra_of_asc_node": 160.1895,
        "meta_arg_of_pericenter": 248.6111,
        "meta_mean_anomaly": 111.367,
        "meta_ephemeris_type": 0,
        "meta_classification_type": "U",
        "meta_norad_cat_id": 36558,
        "meta_element_set_no": 999,
        "meta_rev_at_epoch": 85225,
        "meta_bstar": 0.0013992246,
        "meta_mean_motion_dot": 6.051e-05,
        "meta_mean_motion_ddot": 0,
        "tle_line1": "1 36558U 93036BDU 25343.75705563  .00006051  00000+0  13992-2 0  9990",
        "tle_line2": "2 36558  74.0418 160.1895 0012962 248.6111 111.3670 14.55323693852258"
      },
      "geometry": {
        "type": "Point",
        "coordinates": [
          7.9394798666350495,
          -62.22792294163588
        ]
      }
    }
  ]
}